WORLDVIEW-1 (WV-1)      
1 32060U 07041A   26187.26290092  .00006157  00000+0  25340-3 0  9992
2 32060  97.3893 306.7370 0000931 269.3858  90.7273 15.24490855 45787
WORLDVIEW-2 (WV-2)      
1 35946U 09055A   26187.29993113  .00000133  00000+0  58475-4 0  9996
2 35946  98.4760 260.4888 0004896 151.9016 208.2436 14.37905305878396
WORLDVIEW-3 (WV-3)      
1 40115U 14048A   26187.30318530  .00000929  00000+0  11499-3 0  9991
2 40115  97.8560 261.8718 0000584 167.2449 192.8781 14.85054833644743
